EUTELSAT 21B            
1 38992U 12062B   26025.79144139  .00000144  00000+0  00000+0 0  9992
2 38992   0.0679  16.9455 0002916 291.1364 123.4970  1.00272849 48404
EUTELSAT 70B            
1 39020U 12069A   26025.78677485 -.00000029  00000+0  00000+0 0  9999
2 39020   0.0617   4.8297 0003262 273.8085 200.1553  1.00271477 48081
EUTELSAT 117 WEST A     
1 39122U 13012A   26025.62034328  .00000001  00000+0  00000+0 0  9996
2 39122   0.0106  48.8420 0003041 260.7501 281.8350  1.00270421 47006
EUTELSAT 7B             
1 39163U 13022A   26025.64495677  .00000062  00000+0  00000+0 0  9999
2 39163   0.0661   4.5052 0005722 329.1879  30.4223  1.00272279 46518
EXPRESS-AT1             
1 39612U 14010A   26024.44210258  .00000094  00000+0  00000+0 0  9998
2 39612   0.0102  24.9003 0000386 133.2819 180.7244  1.00272516 43375
EXPRESS-AT2             
1 39613U 14010B   26025.17184865 -.00000267  00000+0  00000+0 0  9997
2 39613   0.0101  40.8302 0001778 233.4502  51.9164  1.00272544 43069
EUTELSAT 3B             
1 39773U 14030A   26025.64417675  .00000033  00000+0  00000+0 0  9996
2 39773   0.0621 352.6102 0003254 257.8284 109.4877  1.00270347 42634
EUTELSAT 115 WEST B     
1 40425U 15010B   26025.62077661 -.00000011  00000+0  00000+0 0  9993
2 40425   0.0089 180.1304 0000250 251.3011 162.0487  1.00270735 39961
